0 COSMOS 2251 DEB
1 35763U 93036ARH 13282.91226727  .00002594  00000-0  87083-3 0  1998
2 35763 073.8698 131.3721 0100240 163.3599 197.1145 14.34924692236179
0 COSMOS 2251 DEB
1 35763U 93036ARH 13285.21295221  .00002778  00000-0  92539-3 0  2019
2 35763 073.8680 127.1081 0105792 157.0339 203.6289 14.34940841236504
0 COSMOS 2251 DEB
1 35763U 93036ARH 13287.86218924  .00003202  00000-0  10755-2 0  2020
2 35763 073.8632 122.2102 0096948 151.9795 208.7477 14.34964399236882
0 COSMOS 2251 DEB
1 35763U 93036ARH 13289.18677687  .00003340  00000-0  11166-2 0  2033
2 35763 073.8608 119.7526 0100762 148.3546 212.4261 14.34976105237073
0 COSMOS 2251 DEB
1 35763U 93036ARH 13290.85993630  .00003379  00000-0  11273-2 0  2040
2 35763 073.8617 116.6513 0102058 145.3297 215.4791 14.34988146237311
0 COSMOS 2251 DEB
1 35763U 93036ARH 13291.83594102  .00003814  00000-0  12799-2 0  2059
2 35763 073.8681 114.8460 0095739 144.9453 215.9830 14.35005229237456
0 COSMOS 2251 DEB
1 35763U 93036ARH 13295.80957551  .00004808  00000-0  15821-2 0  2065
2 35763 073.8866 107.4825 0110170 140.6913 220.7787 14.35059962238027
